DUCHIFAT-1              
1 40021U 14033M   26177.60974735  .00111371  00000+0  10572-2 0  9992
2 40021  98.0448 238.1065 0001317 100.0937 260.0470 15.66536146657223
NANOSATC-BR1            
1 40024U 14033Q   26177.35208476  .00019164  00000+0  62707-3 0  9994
2 40024  98.0721 210.5531 0005038 140.2235 219.9374 15.31739274655383
QB50P1                  
1 40025U 14033R   26177.96968864  .00008965  00000+0  43898-3 0  9993
2 40025  98.0962 189.8021 0008800 180.7025 179.4197 15.18403426654518
DTUSAT-2                
1 40030U 14033W   26177.94650034  .00007887  00000+0  42437-3 0  9994
2 40030  98.0863 176.2936 0007656 189.0308 171.0786 15.15135070654160
QB50P2                  
1 40032U 14033Y   26177.93986303  .00007905  00000+0  42349-3 0  9999
2 40032  98.0751 175.4276 0008808 134.4942 225.7010 15.15279708654146
PERSEUS-M1              
1 40039U 14033AF  26177.80385245  .00001957  00000+0  18133-3 0  9995
2 40039  97.9648 122.0936 0009811 265.1759  94.8341 14.95664314652070
POLYITAN-1              
1 40042U 14033AJ  26177.97115546  .00020174  00000+0  62227-3 0  9997
2 40042  98.0938 205.1586 0008867 115.0294 245.1868 15.33592281655095
TIGRISAT                
1 40043U 14033AK  26177.68284905  .00001731  00000+0  20385-3 0  9999
2 40043  97.7842 327.4774 0050124  44.7680 315.7563 14.85194115647034
CANX-4                  
1 40055U 14034C   26177.87911898  .00000903  00000+0  12302-3 0  9992
2 40055  98.3111  53.5474 0012419 346.2589  13.8283 14.81280989645966
CANX-5                  
1 40056U 14034D   26177.60724345  .00000848  00000+0  11591-3 0  9990
2 40056  98.3114  53.3098 0012441 347.3875  12.7023 14.81297429636737
GONETS-M 10             
1 40063U 14036C   26177.89064383  .00000028  00000+0  13241-3 0  9994
2 40063  82.5114 301.6469 0022919 120.3290 240.0061 12.42946001543458
METEOR-M 2              
1 40069U 14037A   26177.92980907 -.00000044  00000+0 -73104-6 0  9991
2 40069  98.5111 153.3230 0006265  19.8701 340.2719 14.21463404620708
DX1                     
1 40071U 14037C   26177.96458998  .00001515  00000+0  16355-3 0  9992
2 40071  98.3862 140.2593 0005906 235.9891 124.0765 14.90010903647561
UKUBE-1                 
1 40074U 14037F   26177.95219198  .00009082  00000+0  50852-3 0  9998
2 40074  98.4236 182.2506 0003059 116.7089 243.4453 15.13699275650039
GAOFEN-2                
1 40118U 14049A   26177.97363369  .00000192  00000+0  31809-4 0  9997
2 40118  98.0111 242.1714 0006758 190.9112 169.1955 14.80907115640682
BRITE-PL2 (HEWELIUSZ)   
1 40119U 14049B   26177.87987069  .00001747  00000+0  16647-3 0  9995
2 40119  97.9107 289.9549 0015360  78.9285 281.3661 14.94629153642890
CBERS 4                 
1 40336U 14079A   26178.00458237  .00000003  00000+0  15604-4 0  9992
2 40336  98.3534 234.5281 0001537  54.9551 305.1779 14.35511063605361
SMAP                    
1 40376U 15003A   26177.92606197  .00000416  00000+0  89653-4 0  9997
2 40376  98.1276 184.8826 0001431  98.3586 261.7778 14.63374525609047
GONETS-M 11             
1 40552U 15020A   26177.90956448  .00000488  00000+0  34507-2 0  9992
2 40552  82.4870  24.9329 0016179 344.7380  15.3209 12.42877861509942
GONETS-M 12             
1 40553U 15020B   26177.96344546  .00000065  00000+0  39621-3 0  9993
2 40553  82.4904  26.0258 0014871 329.4510  30.5703 12.42891514509946
GONETS-M 13             
1 40554U 15020C   26177.93709090  .00000057  00000+0  33952-3 0  9992
2 40554  82.4866  24.6544 0013204 314.2391  45.7604 12.42871131509912
DMC3-FM1                
1 40715U 15032A   26177.90345270  .00000544  00000+0  68566-4 0  9998
2 40715  97.6459  42.6971 0006457  33.8244 326.3383 14.85747590591355
DMC3-FM2                
1 40716U 15032B   26177.92546594  .00001362  00000+0  16263-3 0  9998
2 40716  97.6514  44.2987 0007102  38.5432 321.6289 14.85756886591353
DMC3-FM3                
1 40717U 15032C   26177.94886012  .00000718  00000+0  88543-4 0  9998
2 40717  97.6566  46.0807 0006359  39.2893 320.8783 14.85745257591365
CARBONITE 1 (CBNT-1)    
1 40718U 15032D   26177.96204826  .00001679  00000+0  20948-3 0  9999
2 40718  97.6510 355.6195 0012937 262.6611  97.3134 14.83614403590791
LILACSAT-2              
1 40908U 15049K   26177.94611654  .00018626  00000+0  31344-3 0  9999
2 40908  97.4638 215.1596 0006434 202.1528 157.9448 15.51757568597263
