OBJECT_NAME,OBJECT_ID,EPOCH,MEAN_MOTION,ECCENTRICITY,INCLINATION,RA_OF_ASC_NODE,ARG_OF_PERICENTER,MEAN_ANOMALY,EPHEMERIS_TYPE,CLASSIFICATION_TYPE,NORAD_CAT_ID,ELEMENT_SET_NO,REV_AT_EPOCH,BSTAR,MEAN_MOTION_DOT,MEAN_MOTION_DDOT
DUCHIFAT-1,2014-033M,2026-06-26T14:38:02.171040,15.66536146,.0001317,98.0448,238.1065,100.0937,260.0470,0,U,40021,999,65722,.10572E-2,.111371E-2,0
NANOSATC-BR1,2014-033Q,2026-06-26T08:27:00.123264,15.31739274,.0005038,98.0721,210.5531,140.2235,219.9374,0,U,40024,999,65538,.62707E-3,.19164E-3,0
QB50P1,2014-033R,2026-06-26T23:16:21.098496,15.18403426,.00088007,98.0962,189.8021,180.7025,179.4197,0,U,40025,999,65451,.43897868E-3,.8965E-4,0
DTUSAT-2,2014-033W,2026-06-26T22:42:57.629376,15.15135070,.00076567,98.0863,176.2936,189.0308,171.0786,0,U,40030,999,65416,.42437015E-3,.7887E-4,0
QB50P2,2014-033Y,2026-06-26T22:33:24.165792,15.15279708,.00088081,98.0751,175.4276,134.4942,225.7010,0,U,40032,999,65414,.42348601E-3,.7905E-4,0
PERSEUS-M1,2014-033AF,2026-06-26T19:17:32.851680,14.95664314,.00098113,97.9648,122.0936,265.1759,94.8341,0,U,40039,999,65207,.18133445E-3,.1957E-4,0
POLYITAN-1,2014-033AJ,2026-06-26T23:18:27.831744,15.33592281,.00088673,98.0938,205.1586,115.0294,245.1868,0,U,40042,999,65509,.62226855E-3,.20174E-3,0
TIGRISAT,2014-033AK,2026-06-26T16:23:18.157920,14.85194115,.00501241,97.7842,327.4774,44.7680,315.7563,0,U,40043,999,64703,.20384889E-3,.1731E-4,0
CANX-4,2014-034C,2026-06-26T21:05:55.879872,14.81280989,.00124196,98.3111,53.5474,346.2589,13.8283,0,U,40055,999,64596,.1230152E-3,.903E-5,0
CANX-5,2014-034D,2026-06-26T14:34:25.834080,14.81297429,.0012441,98.3114,53.3098,347.3875,12.7023,0,U,40056,999,63673,.11591E-3,.848E-5,0
GONETS-M 10,2014-036C,2026-06-26T21:22:31.626912,12.42946001,.00229199,82.5114,301.6469,120.3290,240.0061,0,U,40063,999,54345,.132414E-3,.28E-6,0
METEOR-M 2,2014-037A,2026-06-26T22:18:55.503648,14.21463404,.00062657,98.5111,153.3230,19.8701,340.2719,0,U,40069,999,62070,-.731037E-6,-.44E-6,0
DX1,2014-037C,2026-06-26T23:09:00.574272,14.90010903,.00059068,98.3862,140.2593,235.9891,124.0765,0,U,40071,999,64756,.16355356E-3,.1515E-4,0
UKUBE-1,2014-037F,2026-06-26T22:51:09.387072,15.13699275,.0003059,98.4236,182.2506,116.7089,243.4453,0,U,40074,999,65003,.50852337E-3,.9082E-4,0
GAOFEN-2,2014-049A,2026-06-26T23:22:01.950816,14.80907115,.00067584,98.0111,242.1714,190.9112,169.1955,0,U,40118,999,64068,.31808785E-4,.192E-5,0
BRITE-PL2 (HEWELIUSZ),2014-049B,2026-06-26T21:07:00.827616,14.94629153,.001536,97.9107,289.9549,78.9285,281.3661,0,U,40119,999,64289,.16647088E-3,.1747E-4,0
CBERS 4,2014-079A,2026-06-27T00:06:35.916768,14.35511063,.00015375,98.3534,234.5281,54.9551,305.1779,0,U,40336,999,60536,.15603824E-4,.3E-7,0
SMAP,2015-003A,2026-06-26T22:13:31.754208,14.63374525,.00014312,98.1276,184.8826,98.3586,261.7778,0,U,40376,999,60904,.89652658E-4,.416E-5,0
GONETS-M 11,2015-020A,2026-06-26T21:49:46.371072,12.42877861,.00161798,82.4870,24.9329,344.7380,15.3209,0,U,40552,999,50994,.34506635E-2,.488E-5,0
GONETS-M 12,2015-020B,2026-06-26T23:07:21.687744,12.42891514,.00148714,82.4904,26.0258,329.4510,30.5703,0,U,40553,999,50994,.39621168E-3,.65E-6,0
GONETS-M 13,2015-020C,2026-06-26T22:29:24.653760,12.42871131,.00132044,82.4866,24.6544,314.2391,45.7604,0,U,40554,999,50991,.33951989E-3,.57E-6,0
DMC3-FM1,2015-032A,2026-06-26T21:40:58.313280,14.85747590,.00064578,97.6459,42.6971,33.8244,326.3383,0,U,40715,999,59135,.68566285E-4,.544E-5,0
DMC3-FM2,2015-032B,2026-06-26T22:12:40.257216,14.85756886,.00071022,97.6514,44.2987,38.5432,321.6289,0,U,40716,999,59135,.16262633E-3,.1362E-4,0
DMC3-FM3,2015-032C,2026-06-26T22:46:21.514368,14.85745257,.00063598,97.6566,46.0807,39.2893,320.8783,0,U,40717,999,59136,.8854292E-4,.718E-5,0
CARBONITE 1 (CBNT-1),2015-032D,2026-06-26T23:05:20.969664,14.83614403,.00129378,97.6510,355.6195,262.6611,97.3134,0,U,40718,999,59079,.20947555E-3,.1679E-4,0
LILACSAT-2,2015-049K,2026-06-26T22:42:24.469056,15.51757568,.00064345,97.4638,215.1596,202.1528,157.9448,0,U,40908,999,59726,.3134429E-3,.18626E-3,0
